CCSDS_OMM_VERS = 2.0
CREATION_DATE  = 
ORIGINATOR     = 

OBJECT_NAME    = STARLINK-36673
OBJECT_ID      = 2026-022N
CENTER_NAME    = EARTH
REF_FRAME      = TEME
TIME_SYSTEM    = UTC
MEAN_ELEMENT_THEORY = SGP/SGP4

EPOCH          = 2026-02-23T00:53:34.825632
MEAN_MOTION    = 15.75258213
ECCENTRICITY   = .0001632
INCLINATION    = 97.2843
RA_OF_ASC_NODE = 87.3107
ARG_OF_PERICENTER = 101.1533
MEAN_ANOMALY   = 258.9916

EPHEMERIS_TYPE = 0
CLASSIFICATION_TYPE = U
NORAD_CAT_ID   = 67660
ELEMENT_SET_NO = 999
REV_AT_EPOCH   = 324
BSTAR          = .10618E-2
MEAN_MOTION_DOT = .161761E-2
MEAN_MOTION_DDOT = 0

CCSDS_OMM_VERS = 2.0
CREATION_DATE  = 
ORIGINATOR     = 

OBJECT_NAME    = STARLINK-36674
OBJECT_ID      = 2026-022P
CENTER_NAME    = EARTH
REF_FRAME      = TEME
TIME_SYSTEM    = UTC
MEAN_ELEMENT_THEORY = SGP/SGP4

EPOCH          = 2026-02-23T00:51:32.765760
MEAN_MOTION    = 15.75296934
ECCENTRICITY   = .0001727
INCLINATION    = 97.2842
RA_OF_ASC_NODE = 87.3130
ARG_OF_PERICENTER = 100.1094
MEAN_ANOMALY   = 260.0366

EPHEMERIS_TYPE = 0
CLASSIFICATION_TYPE = U
NORAD_CAT_ID   = 67661
ELEMENT_SET_NO = 999
REV_AT_EPOCH   = 324
BSTAR          = .15667E-2
MEAN_MOTION_DOT = .241398E-2
MEAN_MOTION_DDOT = 0

CCSDS_OMM_VERS = 2.0
CREATION_DATE  = 
ORIGINATOR     = 

OBJECT_NAME    = STARLINK-36700
OBJECT_ID      = 2026-022Q
CENTER_NAME    = EARTH
REF_FRAME      = TEME
TIME_SYSTEM    = UTC
MEAN_ELEMENT_THEORY = SGP/SGP4

EPOCH          = 2026-02-23T00:48:30.082464
MEAN_MOTION    = 15.75240537
ECCENTRICITY   = .0001765
INCLINATION    = 97.2847
RA_OF_ASC_NODE = 87.3157
ARG_OF_PERICENTER = 82.8409
MEAN_ANOMALY   = 277.3057

EPHEMERIS_TYPE = 0
CLASSIFICATION_TYPE = U
NORAD_CAT_ID   = 67662
ELEMENT_SET_NO = 999
REV_AT_EPOCH   = 324
BSTAR          = .78409E-3
MEAN_MOTION_DOT = .118724E-2
MEAN_MOTION_DDOT = 0

CCSDS_OMM_VERS = 2.0
CREATION_DATE  = 
ORIGINATOR     = 

OBJECT_NAME    = STARLINK-36675
OBJECT_ID      = 2026-022R
CENTER_NAME    = EARTH
REF_FRAME      = TEME
TIME_SYSTEM    = UTC
MEAN_ELEMENT_THEORY = SGP/SGP4

EPOCH          = 2026-02-23T00:50:32.156160
MEAN_MOTION    = 15.75296893
ECCENTRICITY   = .0001709
INCLINATION    = 97.2840
RA_OF_ASC_NODE = 87.3139
ARG_OF_PERICENTER = 105.7300
MEAN_ANOMALY   = 254.4154

EPHEMERIS_TYPE = 0
CLASSIFICATION_TYPE = U
NORAD_CAT_ID   = 67663
ELEMENT_SET_NO = 999
REV_AT_EPOCH   = 324
BSTAR          = .19883E-2
MEAN_MOTION_DOT = .308846E-2
MEAN_MOTION_DDOT = 0

CCSDS_OMM_VERS = 2.0
CREATION_DATE  = 
ORIGINATOR     = 

OBJECT_NAME    = STARLINK-36404
OBJECT_ID      = 2026-022S
CENTER_NAME    = EARTH
REF_FRAME      = TEME
TIME_SYSTEM    = UTC
MEAN_ELEMENT_THEORY = SGP/SGP4

EPOCH          = 2026-02-23T00:45:57.341088
MEAN_MOTION    = 15.75299077
ECCENTRICITY   = .0001595
INCLINATION    = 97.2850
RA_OF_ASC_NODE = 87.3172
ARG_OF_PERICENTER = 94.9993
MEAN_ANOMALY   = 265.1454

EPHEMERIS_TYPE = 0
CLASSIFICATION_TYPE = U
NORAD_CAT_ID   = 67664
ELEMENT_SET_NO = 999
REV_AT_EPOCH   = 324
BSTAR          = .15932E-2
MEAN_MOTION_DOT = .245631E-2
MEAN_MOTION_DDOT = 0

CCSDS_OMM_VERS = 2.0
CREATION_DATE  = 
ORIGINATOR     = 

OBJECT_NAME    = STARLINK-36399
OBJECT_ID      = 2026-022T
CENTER_NAME    = EARTH
REF_FRAME      = TEME
TIME_SYSTEM    = UTC
MEAN_ELEMENT_THEORY = SGP/SGP4

EPOCH          = 2026-02-23T00:44:56.402304
MEAN_MOTION    = 15.75310920
ECCENTRICITY   = .0001908
INCLINATION    = 97.2850
RA_OF_ASC_NODE = 87.3183
ARG_OF_PERICENTER = 115.4197
MEAN_ANOMALY   = 244.7266

EPHEMERIS_TYPE = 0
CLASSIFICATION_TYPE = U
NORAD_CAT_ID   = 67665
ELEMENT_SET_NO = 999
REV_AT_EPOCH   = 324
BSTAR          = .17533E-2
MEAN_MOTION_DOT = .271287E-2
MEAN_MOTION_DDOT = 0

CCSDS_OMM_VERS = 2.0
CREATION_DATE  = 
ORIGINATOR     = 

OBJECT_NAME    = STARLINK-36365
OBJECT_ID      = 2026-022U
CENTER_NAME    = EARTH
REF_FRAME      = TEME
TIME_SYSTEM    = UTC
MEAN_ELEMENT_THEORY = SGP/SGP4

EPOCH          = 2026-02-23T00:42:54.958464
MEAN_MOTION    = 15.75301680
ECCENTRICITY   = .0000642
INCLINATION    = 97.2851
RA_OF_ASC_NODE = 87.3204
ARG_OF_PERICENTER = 62.9683
MEAN_ANOMALY   = 297.1648

EPHEMERIS_TYPE = 0
CLASSIFICATION_TYPE = U
NORAD_CAT_ID   = 67666
ELEMENT_SET_NO = 999
REV_AT_EPOCH   = 324
BSTAR          = .20941E-2
MEAN_MOTION_DOT = .32603E-2
MEAN_MOTION_DDOT = 0

CCSDS_OMM_VERS = 2.0
CREATION_DATE  = 
ORIGINATOR     = 

OBJECT_NAME    = STARLINK-36622
OBJECT_ID      = 2026-022V
CENTER_NAME    = EARTH
REF_FRAME      = TEME
TIME_SYSTEM    = UTC
MEAN_ELEMENT_THEORY = SGP/SGP4

EPOCH          = 2026-02-23T02:11:51.134784
MEAN_MOTION    = 15.75214052
ECCENTRICITY   = .0002136
INCLINATION    = 97.2851
RA_OF_ASC_NODE = 87.3895
ARG_OF_PERICENTER = 92.8262
MEAN_ANOMALY   = 267.3248

EPHEMERIS_TYPE = 0
CLASSIFICATION_TYPE = U
NORAD_CAT_ID   = 67667
ELEMENT_SET_NO = 999
REV_AT_EPOCH   = 325
BSTAR          = .51387E-3
MEAN_MOTION_DOT = .773E-3
MEAN_MOTION_DDOT = 0

CCSDS_OMM_VERS = 2.0
CREATION_DATE  = 
ORIGINATOR     = 

OBJECT_NAME    = STARLINK-36625
OBJECT_ID      = 2026-022W
CENTER_NAME    = EARTH
REF_FRAME      = TEME
TIME_SYSTEM    = UTC
MEAN_ELEMENT_THEORY = SGP/SGP4

EPOCH          = 2026-02-23T02:09:49.126752
MEAN_MOTION    = 15.75193324
ECCENTRICITY   = .0001819
INCLINATION    = 97.2854
RA_OF_ASC_NODE = 87.3909
ARG_OF_PERICENTER = 98.2779
MEAN_ANOMALY   = 261.8693

EPHEMERIS_TYPE = 0
CLASSIFICATION_TYPE = U
NORAD_CAT_ID   = 67668
ELEMENT_SET_NO = 999
REV_AT_EPOCH   = 325
BSTAR          = .27592E-3
MEAN_MOTION_DOT = .41232E-3
MEAN_MOTION_DDOT = 0

CCSDS_OMM_VERS = 2.0
CREATION_DATE  = 
ORIGINATOR     = 

OBJECT_NAME    = STARLINK-36639
OBJECT_ID      = 2026-022X
CENTER_NAME    = EARTH
REF_FRAME      = TEME
TIME_SYSTEM    = UTC
MEAN_ELEMENT_THEORY = SGP/SGP4

EPOCH          = 2026-02-23T02:07:16.648032
MEAN_MOTION    = 15.75223051
ECCENTRICITY   = .0002028
INCLINATION    = 97.2856
RA_OF_ASC_NODE = 87.3937
ARG_OF_PERICENTER = 110.9556
MEAN_ANOMALY   = 249.1926

EPHEMERIS_TYPE = 0
CLASSIFICATION_TYPE = U
NORAD_CAT_ID   = 67669
ELEMENT_SET_NO = 999
REV_AT_EPOCH   = 325
BSTAR          = .64534E-3
MEAN_MOTION_DOT = .97375E-3
MEAN_MOTION_DDOT = 0

CCSDS_OMM_VERS = 2.0
CREATION_DATE  = 
ORIGINATOR     = 

OBJECT_NAME    = STARLINK-36596
OBJECT_ID      = 2026-022Y
CENTER_NAME    = EARTH
REF_FRAME      = TEME
TIME_SYSTEM    = UTC
MEAN_ELEMENT_THEORY = SGP/SGP4

EPOCH          = 2026-02-23T02:04:44.278176
MEAN_MOTION    = 15.75203742
ECCENTRICITY   = .0001803
INCLINATION    = 97.2856
RA_OF_ASC_NODE = 87.3956
ARG_OF_PERICENTER = 101.0129
MEAN_ANOMALY   = 259.1339

EPHEMERIS_TYPE = 0
CLASSIFICATION_TYPE = U
NORAD_CAT_ID   = 67670
ELEMENT_SET_NO = 999
REV_AT_EPOCH   = 325
BSTAR          = .37451E-3
MEAN_MOTION_DOT = .56135E-3
MEAN_MOTION_DDOT = 0

CCSDS_OMM_VERS = 2.0
CREATION_DATE  = 
ORIGINATOR     = 

OBJECT_NAME    = STARLINK-36297
OBJECT_ID      = 2026-022Z
CENTER_NAME    = EARTH
REF_FRAME      = TEME
TIME_SYSTEM    = UTC
MEAN_ELEMENT_THEORY = SGP/SGP4

EPOCH          = 2026-02-23T02:01:41.001312
MEAN_MOTION    = 15.75244856
ECCENTRICITY   = .0000895
INCLINATION    = 97.2858
RA_OF_ASC_NODE = 87.3986
ARG_OF_PERICENTER = 166.8922
MEAN_ANOMALY   = 193.2366

EPHEMERIS_TYPE = 0
CLASSIFICATION_TYPE = U
NORAD_CAT_ID   = 67671
ELEMENT_SET_NO = 999
REV_AT_EPOCH   = 325
BSTAR          = .10917E-2
MEAN_MOTION_DOT = .166311E-2
MEAN_MOTION_DDOT = 0

