STARLINK-36673          
1 67660U 26022N   26054.03720863  .00161761  00000+0  10618-2 0  9992
2 67660  97.2843  87.3107 0001632 101.1533 258.9916 15.75258213  3240
STARLINK-36674          
1 67661U 26022P   26054.03579590  .00241398  00000+0  15667-2 0  9996
2 67661  97.2842  87.3130 0001727 100.1094 260.0366 15.75296934  3247
STARLINK-36700          
1 67662U 26022Q   26054.03368151  .00118724  00000+0  78409-3 0  9996
2 67662  97.2847  87.3157 0001765  82.8409 277.3057 15.75240537  3246
STARLINK-36675          
1 67663U 26022R   26054.03509440  .00308846  00000+0  19883-2 0  9991
2 67663  97.2840  87.3139 0001709 105.7300 254.4154 15.75296893  3243
STARLINK-36404          
1 67664U 26022S   26054.03191367  .00245631  00000+0  15932-2 0  9990
2 67664  97.2850  87.3172 0001595  94.9993 265.1454 15.75299077  3241
STARLINK-36399          
1 67665U 26022T   26054.03120836  .00271287  00000+0  17533-2 0  9999
2 67665  97.2850  87.3183 0001908 115.4197 244.7266 15.75310920  3242
STARLINK-36365          
1 67666U 26022U   26054.02980276  .00326030  00000+0  20941-2 0  9995
2 67666  97.2851  87.3204 0000642  62.9683 297.1648 15.75301680  3247
STARLINK-36622          
1 67667U 26022V   26054.09156406  .00077300  00000+0  51387-3 0  9995
2 67667  97.2851  87.3895 0002136  92.8262 267.3248 15.75214052  3251
STARLINK-36625          
1 67668U 26022W   26054.09015193  .00041232  00000+0  27592-3 0  9999
2 67668  97.2854  87.3909 0001819  98.2779 261.8693 15.75193324  3252
STARLINK-36639          
1 67669U 26022X   26054.08838713  .00097375  00000+0  64534-3 0  9996
2 67669  97.2856  87.3937 0002028 110.9556 249.1926 15.75223051  3253
STARLINK-36596          
1 67670U 26022Y   26054.08662359  .00056135  00000+0  37451-3 0  9996
2 67670  97.2856  87.3956 0001803 101.0129 259.1339 15.75203742  3257
STARLINK-36297          
1 67671U 26022Z   26054.08450233  .00166311  00000+0  10917-2 0  9998
2 67671  97.2858  87.3986 0000895 166.8922 193.2366 15.75244856  3252
